NORAD_CAT_ID,OBJECT_NAME,OBJECT_TYPE,EPOCH,MEAN_MOTION,ECCENTRICITY,INCLINATION,RA_OF_ASC_NODE,ARG_OF_PERICENTER,MEAN_ANOMALY,BSTAR,MEAN_MOTION_DOT,MEAN_MOTION_DDOT,TLE_LINE0,TLE_LINE1,TLE_LINE2,SEMIMAJOR_AXIS,PERIOD,APOGEE,PERIGEE,DECAYED
53716.0,STARLINK-4699,PAYLOAD,2024-07-03 21:06:21,15.0882592,0.00012,53.217,129.2994,81.1106,279.0021,-2.017e-07,-2.91e-06,0.0,0 STARLINK-4699,1 53716U 22107S   24185.87941486 -.00000291  00000-0 -20170-6 0  9991,2 53716  53.2170 129.2994 0001200  81.1106 279.0021 15.08825920101292,6917.923,95.438,540.619,538.958,0.0
53716.0,STARLINK-4699,PAYLOAD,2024-07-04 05:03:16,15.0883861,0.0001362,53.2176,127.8157,93.2017,266.9131,7.1055e-05,8.43e-06,0.0,0 STARLINK-4699,1 53716U 22107S   24186.21060683  .00000843  00000-0  71055-4 0  9998,2 53716  53.2176 127.8157 0001362  93.2017 266.9131 15.08838610101340,6917.885,95.438,540.692,538.807,0.0
53716.0,STARLINK-4699,PAYLOAD,2024-07-04 13:00:11,15.08847212,0.000121,53.2167,126.3253,72.4265,287.686,0.00014202,1.974e-05,0.0,0 STARLINK-4699,1 53716U 22107S   24186.54179881  .00001974  00000-0  14202-3 0  9991,2 53716  53.2167 126.3253 0001210  72.4265 287.6860 15.08847212101399,6917.858,95.437,540.56,538.886,0.0
53716.0,STARLINK-4699,PAYLOAD,2024-07-05 04:54:03,15.08839395,0.0001407,53.2179,123.3542,87.5953,272.52,0.0001539,2.162e-05,0.0,0 STARLINK-4699,1 53716U 22107S   24187.20420714  .00002162  00000-0  15390-3 0  9998,2 53716  53.2179 123.3542 0001407  87.5953 272.5200 15.08839395101494,6917.882,95.438,540.721,538.774,0.0
53716.0,STARLINK-4699,PAYLOAD,2024-07-05 12:50:58,15.08848811,0.0001417,53.218,121.8683,91.341,268.7745,0.00012404,1.687e-05,0.0,0 STARLINK-4699,1 53716U 22107S   24187.53540167  .00001687  00000-0  12404-3 0  9993,2 53716  53.2180 121.8683 0001417  91.3410 268.7745 15.08848811101996,6917.853,95.437,540.699,538.738,0.0
53716.0,STARLINK-4699,PAYLOAD,2024-07-05 19:12:32,15.08828308,0.0001482,53.2173,120.6792,97.5423,262.5737,-9.1571e-06,-4.34e-06,0.0,0 STARLINK-4699,1 53716U 22107S   24187.80037413 -.00000434  00000-0 -91571-5 0  9993,2 53716  53.2173 120.6792 0001482  97.5423 262.5737 15.08828308101587,6917.916,95.438,540.806,538.756,0.0
53716.0,STARLINK-4699,PAYLOAD,2024-07-06 04:44:50,15.08841328,0.0001324,53.2161,118.8937,98.2348,261.8794,0.00010377,1.364e-05,0.0,0 STARLINK-4699,1 53716U 22107S   24188.19780585  .00001364  00000-0  10377-3 0  9995,2 53716  53.2161 118.8937 0001324  98.2348 261.8794 15.08841328101642,6917.876,95.437,540.657,538.825,0.0
53716.0,STARLINK-4699,PAYLOAD,2024-07-06 12:41:45,15.08846414,0.0001271,53.2155,117.407,99.7508,260.3628,0.00030989,4.648e-05,0.0,0 STARLINK-4699,1 53716U 22107S   24188.52900428  .00004648  00000-0  30989-3 0  9991,2 53716  53.2155 117.4070 0001271  99.7508 260.3628 15.08846414102140,6917.861,95.437,540.605,538.847,0.0
53716.0,STARLINK-4699,PAYLOAD,2024-07-07 01:24:51,15.08835459,0.0001363,53.2161,115.0267,100.9712,259.1433,0.00016303,2.307e-05,0.0,0 STARLINK-4699,1 53716U 22107S   24189.05893046  .00002307  00000-0  16303-3 0  9991,2 53716  53.2161 115.0267 0001363 100.9712 259.1433 15.08835459101778,6917.894,95.438,540.702,538.816,0.0
53716.0,STARLINK-4699,PAYLOAD,2024-07-08 01:15:38,15.08854272,0.0001275,53.216,110.568,96.0468,264.067,0.00074332,0.00011566,0.0,0 STARLINK-4699,1 53716U 22107S   24190.05252829  .00011566  00000-0  74332-3 0  9994,2 53716  53.2160 110.5680 0001275  96.0468 264.0670 15.08854272101920,6917.837,95.437,540.584,538.82,0.0
53716.0,STARLINK-4699,PAYLOAD,2024-07-08 18:44:52,15.08845409,0.0001857,53.2187,107.292,112.7178,247.401,0.00036047,5.454e-05,0.0,0 STARLINK-4699,1 53716U 22107S   24190.78116679  .00005454  00000-0  36047-3 0  9996,2 53716  53.2187 107.2920 0001857 112.7178 247.4010 15.08845409102037,6917.864,95.437,541.014,538.444,0.0
53716.0,STARLINK-4699,PAYLOAD,2024-07-08 21:55:39,15.08846544,0.0001505,53.2175,106.6981,108.8036,251.3119,0.00018817,2.709e-05,0.0,0 STARLINK-4699,1 53716U 22107S   24190.91364610  .00002709  00000-0  18817-3 0  9996,2 53716  53.2175 106.6981 0001505 108.8036 251.3119 15.08846544102500,6917.86,95.437,540.767,538.684,0.0
53716.0,STARLINK-4699,PAYLOAD,2024-07-09 04:17:11,15.08843375,0.0001322,53.2171,105.5135,81.9224,278.1918,0.00010139,1.326e-05,0.0,0 STARLINK-4699,1 53716U 22107S   24191.17860828  .00001326  00000-0  10139-3 0  9990,2 53716  53.2171 105.5135 0001322  81.9224 278.1918 15.08843375102549,6917.87,95.437,540.65,538.821,0.0
53716.0,STARLINK-4699,PAYLOAD,2024-07-09 21:46:26,15.08841092,0.0001311,53.2164,102.2419,80.9789,279.1351,4.0422e-05,3.55e-06,0.0,0 STARLINK-4699,1 53716U 22107S   24191.90724890  .00000355  00000-0  40422-4 0  9999,2 53716  53.2164 102.2419 0001311  80.9789 279.1351 15.08841092102651,6917.877,95.437,540.649,538.835,0.0
53716.0,STARLINK-4699,PAYLOAD,2024-07-10 10:29:30,15.08864734,0.0001443,53.2177,99.8633,80.2094,279.9061,0.00047245,7.244e-05,0.0,0 STARLINK-4699,1 53716U 22107S   24192.43715696  .00007244  00000-0  47245-3 0  9995,2 53716  53.2177  99.8633 0001443  80.2094 279.9061 15.08864734102285,6917.805,95.436,540.668,538.672,0.0
53716.0,STARLINK-4699,PAYLOAD,2024-07-10 18:26:27,15.08828863,0.0001475,53.2163,98.3762,90.7294,269.3867,-0.00016072,-2.844e-05,0.0,0 STARLINK-4699,1 53716U 22107S   24192.76837109 -.00002844  00000-0 -16072-3 0  9992,2 53716  53.2163  98.3762 0001475  90.7294 269.3867 15.08828863102336,6917.914,95.438,540.8,538.759,0.0
53716.0,STARLINK-4699,PAYLOAD,2024-07-10 21:37:13,15.08828563,0.0001446,53.2163,97.782,90.0659,270.0499,-0.00017405,-3.056e-05,0.0,0 STARLINK-4699,1 53716U 22107S   24192.90085107 -.00003056  00000-0 -17405-3 0  9998,2 53716  53.2163  97.7820 0001446  90.0659 270.0499 15.08828563102809,6917.915,95.438,540.781,538.78,0.0
53716.0,STARLINK-4699,PAYLOAD,2024-07-11 03:58:46,15.08834413,0.0001341,53.2168,96.5922,95.901,264.2135,-4.1064e-05,-9.41e-06,0.0,0 STARLINK-4699,1 53716U 22107S   24193.16581028 -.00000941  00000-0 -41064-4 0  9999,2 53716  53.2168  96.5922 0001341  95.9010 264.2135 15.08834413102840,6917.897,95.438,540.69,538.835,0.0
53716.0,STARLINK-4699,PAYLOAD,2024-07-12 00:38:46,15.08848151,0.0001258,53.2168,92.727,95.0511,265.0624,0.00020028,2.902e-05,0.0,0 STARLINK-4699,1 53716U 22107S   24194.02692710  .00002902  00000-0  20028-3 0  9999,2 53716  53.2168  92.7270 0001258  95.0511 265.0624 15.08848151102529,6917.855,95.437,540.591,538.85,0.0
53716.0,STARLINK-4699,PAYLOAD,2024-07-12 10:11:04,15.08867308,0.0001191,53.2163,90.9428,82.0493,278.0635,0.00081304,0.00012685,0.0,0 STARLINK-4699,1 53716U 22107S   24194.42436213  .00012685  00000-0  81304-3 0  9990,2 53716  53.2163  90.9428 0001191  82.0493 278.0635 15.08867308102587,6917.797,95.436,540.486,538.838,0.0
53716.0,STARLINK-4699,PAYLOAD,2024-07-12 21:18:47,15.08838694,0.0001546,53.2161,88.8613,88.9407,271.1763,-4.4866e-05,-1.002e-05,0.0,0 STARLINK-4699,1 53716U 22107S   24194.88804909 -.00001002  00000-0 -44866-4 0  9997,2 53716  53.2161  88.8613 0001546  88.9407 271.1763 15.08838694102651,6917.884,95.438,540.819,538.68,0.0
53716.0,STARLINK-4699,PAYLOAD,2024-07-12 22:54:10,15.08838745,0.0001421,53.2157,88.5635,87.3001,272.8154,1.5996e-05,-3.3e-07,0.0,0 STARLINK-4699,1 53716U 22107S   24194.95428895 -.00000033  00000-0  15996-4 0  9995,2 53716  53.2157  88.5635 0001421  87.3001 272.8154 15.08838745103113,6917.884,95.438,540.732,538.766,0.0
53716.0,STARLINK-4699,PAYLOAD,2024-07-13 10:01:52,15.08855559,0.0001595,53.2165,86.4818,73.8239,286.2928,0.001135,0.00017829,0.0,0 STARLINK-4699,1 53716U 22107S   24195.41796837  .00017829  00000-0  11350-2 0  9999,2 53716  53.2165  86.4818 0001595  73.8239 286.2928 15.08855559102734,6917.833,95.437,540.801,538.594,0.0
53716.0,STARLINK-4699,PAYLOAD,2024-07-13 21:09:34,15.08834128,0.0001358,53.215,84.4003,87.1824,272.9324,0.0010861,0.00017037,0.0,0 STARLINK-4699,1 53716U 22107S   24195.88165345  .00017037  00000-0  10861-2 0  9991,2 53716  53.2150  84.4003 0001358  87.1824 272.9324 15.08834128102806,6917.898,95.438,540.703,538.824,0.0
53716.0,STARLINK-4699,PAYLOAD,2024-07-13 22:44:57,15.08840888,0.0001262,53.2152,84.1028,77.3064,282.8069,0.00067403,0.00010456,0.0,0 STARLINK-4699,1 53716U 22107S   24195.94789285  .00010456  00000-0  67403-3 0  9996,2 53716  53.2152  84.1028 0001262  77.3064 282.8069 15.08840888103260,6917.878,95.437,540.616,538.87,0.0
53716.0,STARLINK-4699,PAYLOAD,2024-07-14 09:52:39,15.08855593,0.0001357,53.2155,82.0218,79.7603,280.3542,0.0015314,0.00024179,0.0,0 STARLINK-4699,1 53716U 22107S   24196.41157173  .00024179  00000-0  15314-2 0  9994,2 53716  53.2155  82.0218 0001357  79.7603 280.3542 15.08855593103337,6917.833,95.437,540.636,538.759,0.0
53716.0,STARLINK-4699,PAYLOAD,2024-07-14 21:00:22,15.0884637,0.0001307,53.216,79.9402,95.0326,265.0815,0.0015074,0.00023788,0.0,0 STARLINK-4699,1 53716U 22107S   24196.87525502  .00023788  00000-0  15074-2 0  9997,2 53716  53.2160  79.9402 0001307  95.0326 265.0815 15.08846370102954,6917.861,95.437,540.63,538.822,0.0
53716.0,STARLINK-4699,PAYLOAD,2024-07-14 22:35:45,15.08848081,0.0001307,53.2168,79.6439,87.7537,272.3605,0.0019179,0.00030374,0.0,0 STARLINK-4699,1 53716U 22107S   24196.94149526  .00030374  00000-0  19179-2 0  9992,2 53716  53.2168  79.6439 0001307  87.7537 272.3605 15.08848081103412,6917.856,95.437,540.625,538.817,0.0
53716.0,STARLINK-4699,PAYLOAD,2024-07-15 09:43:26,15.08853327,0.0001444,53.2173,77.5568,105.955,254.1601,0.0011817,0.00018576,0.0,0 STARLINK-4699,1 53716U 22107S   24197.40517249  .00018576  00000-0  11817-2 0  9996,2 53716  53.2173  77.5568 0001444 105.9550 254.1601 15.08853327103039,6917.84,95.437,540.704,538.706,0.0
53716.0,STARLINK-4699,PAYLOAD,2024-07-15 20:51:09,15.08839468,0.0001482,53.2165,75.4797,88.9443,271.1719,0.00085833,0.00013399,0.0,0 STARLINK-4699,1 53716U 22107S   24197.86885725  .00013399  00000-0  85833-3 0  9991,2 53716  53.2165  75.4797 0001482  88.9443 271.1719 15.08839468103101,6917.882,95.438,540.772,538.722,0.0
